ALOS (DAICHI)           
1 28931U 06002A   26055.36387655  .00001425  00000+0  24724-3 0  9995
2 28931  98.1196  11.3888 0001487  54.1576 305.9767 14.69760534 71523
H-2A R/B                
1 28932U 06002B   26055.41052370  .00009448  00000+0  47768-3 0  9991
2 28932  98.2387 201.2980 0052047 286.8584  72.6943 15.16107662 92427
RESURS-DK 1             
1 29228U 06021A   26055.57474727  .00002237  00000+0  13378-3 0  9991
2 29228  69.9313 270.9493 0002863 174.2420 185.8779 15.12652561 85540
CZ-4B R/B               
1 29507U 06046C   26055.54735131  .00004835  00000+0  24683-3 0  9991
2 29507  97.5623 100.4911 0032118 315.0764  44.7870 15.16749127 58055
CZ-2C R/B               
1 31114U 07010B   26055.34035200  .00000123  00000+0  75750-4 0  9996
2 31114  98.3974 169.2889 0058375 334.0400  25.7852 14.20241015977829
COSMO-SKYMED 1          
1 31598U 07023A   26055.55893343  .00003129  00000+0  28117-3 0  9992
2 31598  97.8881 246.4866 0001351  83.9744 276.1631 14.96426075 12946
COSMOS 2428             
1 31792U 07029A   26055.50841903  .00000172  00000+0  11817-3 0  9998
2 31792  70.9404 231.0108 0008338 291.2308  68.7922 14.12942026962237
SL-16 R/B               
1 31793U 07029B   26055.55668091 -.00000177  00000+0 -67103-4 0  9996
2 31793  70.9753 199.9887 0002474 280.6809 150.2620 14.14835936963511
KORONAS-FOTON           
1 33504U 09003A   26055.60074436  .00012369  00000+0  27968-3 0  9990
2 33504  82.4297 289.4831 0010076 195.8718 164.2215 15.42962560943723
CZ-2C R/B               
1 37731U 11030B   26055.44860906  .00001663  00000+0  21556-3 0  9998
2 37731  97.8522  12.9797 0053621  34.8280  78.5792 14.81162471788133
H-2A R/B                
1 38341U 12025E   26055.47733071  .00003314  00000+0  30309-3 0  9997
2 38341  98.4707  21.4705 0044799 357.9144   2.1880 14.95037730746242
SHIJIAN-16 (SJ-16)      
1 39358U 13057A   26055.62315875  .00000820  00000+0  82956-4 0  9992
2 39358  74.9716 209.8218 0016086 146.0647 214.1574 14.92278165669553
